[{"OBJECT_NAME":"AEROCUBE 6A","OBJECT_ID":"2014-033AM","EPOCH":"2026-03-09T22:20:23.815680","MEAN_MOTION":14.96848607,"ECCENTRICITY":0.00387302,"INCLINATION":97.7128,"RA_OF_ASC_NODE":237.0691,"ARG_OF_PERICENTER":349.0559,"MEAN_ANOMALY":10.9816,"EPHEMERIS_TYPE":0,"CLASSIFICATION_TYPE":"U","NORAD_CAT_ID":40045,"ELEMENT_SET_NO":999,"REV_AT_EPOCH":63176,"BSTAR":0.00067890448,"MEAN_MOTION_DOT":7.845e-5,"MEAN_MOTION_DDOT":0},{"OBJECT_NAME":"STARLINK-36093","OBJECT_ID":"2025-293N","EPOCH":"2026-03-09T18:58:54.198912","MEAN_MOTION":14.98318168,"ECCENTRICITY":0.0002859,"INCLINATION":70.0017,"RA_OF_ASC_NODE":94.1738,"ARG_OF_PERICENTER":269.9344,"MEAN_ANOMALY":90.1487,"EPHEMERIS_TYPE":0,"CLASSIFICATION_TYPE":"U","NORAD_CAT_ID":67015,"ELEMENT_SET_NO":999,"REV_AT_EPOCH":1490,"BSTAR":-0.00042485433,"MEAN_MOTION_DOT":-5.157e-5,"MEAN_MOTION_DDOT":0}]
